{"type": "FeatureCollection", "features": [ {"type": "Feature", "properties": {"norad_id": 66465, "name": "STARLINK-35448", "group": "last-30-days", "lat": 16.314134277834484, "lon": 101.83066410809629, "alt_km": 433.51653114939654, "timestamp": "2025-12-10T14:53:35.945808+00:00", "meta": {"OBJECT_NAME": "STARLINK-35448", "OBJECT_ID": "2025-262K", "EPOCH": "2025-12-10T06:00:02.000160", "MEAN_MOTION": 15.45153357, "ECCENTRICITY": 0.00014707, "INCLINATION": 43.0001, "RA_OF_ASC_NODE": 85.6721, "ARG_OF_PERICENTER": 280.817, "MEAN_ANOMALY": 201.1108, "EPHEMERIS_TYPE": 0, "CLASSIFICATION_TYPE": "U", "NORAD_CAT_ID": 66465, "ELEMENT_SET_NO": 999, "REV_AT_EPOCH": 523, "BSTAR": -0.046700971, "MEAN_MOTION_DOT": -0.02019235, "MEAN_MOTION_DDOT": 0}, "tle": {"line1": "1 66465U 25262K   25344.25002315 -.02019235  00000+0 -46701-1 0  9992", "line2": "2 66465  43.0001  85.6721 0001470 280.8170 201.1108 15.45153357  5236"}}, "geometry": {"type": "Point", "coordinates": [101.83066410809629, 16.314134277834484]}}, {"type": "Feature", "properties": {"norad_id": 66466, "name": "STARLINK-35388", "group": "last-30-days", "lat": 21.84869191417278, "lon": 108.98684119039518, "alt_km": 429.0666418732144, "timestamp": "2025-12-10T14:53:35.945817+00:00", "meta": {"OBJECT_NAME": "STARLINK-35388", "OBJECT_ID": "2025-262L", "EPOCH": "2025-12-10T06:00:02.000160", "MEAN_MOTION": 15.46489718, "ECCENTRICITY": 0.00013507, "INCLINATION": 43.0006, "RA_OF_ASC_NODE": 85.6538, "ARG_OF_PERICENTER": 270.5263, "MEAN_ANOMALY": 218.3665, "EPHEMERIS_TYPE": 0, "CLASSIFICATION_TYPE": "U", "NORAD_CAT_ID": 66466, "ELEMENT_SET_NO": 999, "REV_AT_EPOCH": 523, "BSTAR": -0.044744526, "MEAN_MOTION_DOT": -0.02025675, "MEAN_MOTION_DDOT": 0}, "tle": {"line1": "1 66466U 25262L   25344.25002315 -.02025675  00000+0 -44745-1 0  9994", "line2": "2 66466  43.0006  85.6538 0001350 270.5263 218.3665 15.46489718  5236"}}, "geometry": {"type": "Point", "coordinates": [108.98684119039518, 21.84869191417278]}}, {"type": "Feature", "properties": {"norad_id": 66467, "name": "STARLINK-35682", "group": "last-30-days", "lat": 9.61249861819022, "lon": 94.0196271746955, "alt_km": 438.0036694713881, "timestamp": "2025-12-10T14:53:35.945826+00:00", "meta": {"OBJECT_NAME": "STARLINK-35682", "OBJECT_ID": "2025-262M", "EPOCH": "2025-12-10T06:00:02.000160", "MEAN_MOTION": 15.43828785, "ECCENTRICITY": 0.00011311, "INCLINATION": 43.0007, "RA_OF_ASC_NODE": 85.6915, "ARG_OF_PERICENTER": 289.1654, "MEAN_ANOMALY": 184.3718, "EPHEMERIS_TYPE": 0, "CLASSIFICATION_TYPE": "U", "NORAD_CAT_ID": 66467, "ELEMENT_SET_NO": 999, "REV_AT_EPOCH": 523, "BSTAR": -0.048074704, "MEAN_MOTION_DOT": -0.01989429, "MEAN_MOTION_DDOT": 0}, "tle": {"line1": "1 66467U 25262M   25344.25002315 -.01989429  00000+0 -48075-1 0  9990", "line2": "2 66467  43.0007  85.6915 0001131 289.1654 184.3718 15.43828785  5233"}}, "geometry": {"type": "Point", "coordinates": [94.0196271746955, 9.61249861819022]}}, {"type": "Feature", "properties": {"norad_id": 66468, "name": "STARLINK-35331", "group": "last-30-days", "lat": 29.798382874352395, "lon": 121.38531433262786, "alt_km": 411.7724101139065, "timestamp": "2025-12-10T14:53:35.945837+00:00", "meta": {"OBJECT_NAME": "STARLINK-35331", "OBJECT_ID": "2025-262N", "EPOCH": "2025-12-09T18:35:23.867520", "MEAN_MOTION": 15.50297909, "ECCENTRICITY": 0.00010504, "INCLINATION": 43.001, "RA_OF_ASC_NODE": 88.4141, "ARG_OF_PERICENTER": 308.1089, "MEAN_ANOMALY": 51.9676, "EPHEMERIS_TYPE": 0, "CLASSIFICATION_TYPE": "U", "NORAD_CAT_ID": 66468, "ELEMENT_SET_NO": 999, "REV_AT_EPOCH": 510, "BSTAR": -0.0022109145, "MEAN_MOTION_DOT": -0.00126691, "MEAN_MOTION_DDOT": 0}, "tle": {"line1": "1 66468U 25262N   25343.77458180 -.00126691  00000+0 -22109-2 0  9996", "line2": "2 66468  43.0010  88.4141 0001050 308.1089  51.9676 15.50297909  5108"}}, "geometry": {"type": "Point", "coordinates": [121.38531433262786, 29.798382874352395]}}, {"type": "Feature", "properties": {"norad_id": 66469, "name": "STARLINK-35451", "group": "last-30-days", "lat": 33.527270295398026, "lon": 128.76810801006457, "alt_km": 410.40326700925107, "timestamp": "2025-12-10T14:53:35.945846+00:00", "meta": {"OBJECT_NAME": "STARLINK-35451", "OBJECT_ID": "2025-262P", "EPOCH": "2025-12-10T05:23:09.364416", "MEAN_MOTION": 15.50624864, "ECCENTRICITY": 0.00020444, "INCLINATION": 43.0001, "RA_OF_ASC_NODE": 85.7677, "ARG_OF_PERICENTER": 263.944, "MEAN_ANOMALY": 96.1188, "EPHEMERIS_TYPE": 0, "CLASSIFICATION_TYPE": "U", "NORAD_CAT_ID": 66469, "ELEMENT_SET_NO": 999, "REV_AT_EPOCH": 517, "BSTAR": 0.002334891, "MEAN_MOTION_DOT": 0.0013933, "MEAN_MOTION_DDOT": 0}, "tle": {"line1": "1 66469U 25262P   25344.22441394  .00139330  00000+0  23349-2 0  9996", "line2": "2 66469  43.0001  85.7677 0002044 263.9440  96.1188 15.50624864  5176"}}, "geometry": {"type": "Point", "coordinates": [128.76810801006457, 33.527270295398026]}}, {"type": "Feature", "properties": {"norad_id": 66470, "name": "STARLINK-35655", "group": "last-30-days", "lat": 30.733972146208956, "lon": 123.11091479294396, "alt_km": 414.9078887402138, "timestamp": "2025-12-10T14:53:35.945855+00:00", "meta": {"OBJECT_NAME": "STARLINK-35655", "OBJECT_ID": "2025-262Q", "EPOCH": "2025-12-10T06:57:09.469152", "MEAN_MOTION": 15.5006839, "ECCENTRICITY": 0.00054502, "INCLINATION": 42.9996, "RA_OF_ASC_NODE": 85.3987, "ARG_OF_PERICENTER": 215.4845, "MEAN_ANOMALY": 144.5653, "EPHEMERIS_TYPE": 0, "CLASSIFICATION_TYPE": "U", "NORAD_CAT_ID": 66470, "ELEMENT_SET_NO": 999, "REV_AT_EPOCH": 518, "BSTAR": 0.0031300467, "MEAN_MOTION_DOT": 0.00184365, "MEAN_MOTION_DDOT": 0}, "tle": {"line1": "1 66470U 25262Q   25344.28969293  .00184365  00000+0  31300-2 0  9991", "line2": "2 66470  42.9996  85.3987 0005450 215.4845 144.5653 15.50068390  5186"}}, "geometry": {"type": "Point", "coordinates": [123.11091479294396, 30.733972146208956]}}, {"type": "Feature", "properties": {"norad_id": 66471, "name": "STARLINK-35569", "group": "last-30-days", "lat": 32.61605061890339, "lon": 126.82565703534904, "alt_km": 410.5653680949126, "timestamp": "2025-12-10T14:53:35.945864+00:00", "meta": {"OBJECT_NAME": "STARLINK-35569", "OBJECT_ID": "2025-262R", "EPOCH": "2025-12-10T05:23:39.050592", "MEAN_MOTION": 15.50640903, "ECCENTRICITY": 0.00025403, "INCLINATION": 43.0003, "RA_OF_ASC_NODE": 85.7711, "ARG_OF_PERICENTER": 267.4022, "MEAN_ANOMALY": 92.6547, "EPHEMERIS_TYPE": 0, "CLASSIFICATION_TYPE": "U", "NORAD_CAT_ID": 66471, "ELEMENT_SET_NO": 999, "REV_AT_EPOCH": 517, "BSTAR": 0.0032695678, "MEAN_MOTION_DOT": 0.00196807, "MEAN_MOTION_DDOT": 0}, "tle": {"line1": "1 66471U 25262R   25344.22475753  .00196807  00000+0  32696-2 0  9992", "line2": "2 66471  43.0003  85.7711 0002540 267.4022  92.6547 15.50640903  5178"}}, "geometry": {"type": "Point", "coordinates": [126.82565703534904, 32.61605061890339]}}, {"type": "Feature", "properties": {"norad_id": 66472, "name": "STARLINK-35567", "group": "last-30-days", "lat": 34.43762589079803, "lon": 130.82188415196453, "alt_km": 410.2347761148394, "timestamp": "2025-12-10T14:53:35.945873+00:00", "meta": {"OBJECT_NAME": "STARLINK-35567", "OBJECT_ID": "2025-262S", "EPOCH": "2025-12-10T06:55:24.966624", "MEAN_MOTION": 15.50651919, "ECCENTRICITY": 0.00019795, "INCLINATION": 43, "RA_OF_ASC_NODE": 85.3879, "ARG_OF_PERICENTER": 260.6566, "MEAN_ANOMALY": 99.407, "EPHEMERIS_TYPE": 0, "CLASSIFICATION_TYPE": "U", "NORAD_CAT_ID": 66472, "ELEMENT_SET_NO": 999, "REV_AT_EPOCH": 518, "BSTAR": 0.0025444524, "MEAN_MOTION_DOT": 0.00152265, "MEAN_MOTION_DDOT": 0}, "tle": {"line1": "1 66472U 25262S   25344.28848341  .00152265  00000+0  25445-2 0  9990", "line2": "2 66472  43.0000  85.3879 0001979 260.6566  99.4070 15.50651919  5186"}}, "geometry": {"type": "Point", "coordinates": [130.82188415196453, 34.43762589079803]}}, {"type": "Feature", "properties": {"norad_id": 66473, "name": "STARLINK-35568", "group": "last-30-days", "lat": 35.316007777415614, "lon": 132.92759819641518, "alt_km": 410.1609901342208, "timestamp": "2025-12-10T14:53:35.945882+00:00", "meta": {"OBJECT_NAME": "STARLINK-35568", "OBJECT_ID": "2025-262T", "EPOCH": "2025-12-10T06:54:55.222560", "MEAN_MOTION": 15.50661869, "ECCENTRICITY": 0.00020412, "INCLINATION": 43.0001, "RA_OF_ASC_NODE": 85.3848, "ARG_OF_PERICENTER": 252.271, "MEAN_ANOMALY": 107.7928, "EPHEMERIS_TYPE": 0, "CLASSIFICATION_TYPE": "U", "NORAD_CAT_ID": 66473, "ELEMENT_SET_NO": 999, "REV_AT_EPOCH": 518, "BSTAR": 0.002822102, "MEAN_MOTION_DOT": 0.00169349, "MEAN_MOTION_DDOT": 0}, "tle": {"line1": "1 66473U 25262T   25344.28813915  .00169349  00000+0  28221-2 0  9996", "line2": "2 66473  43.0001  85.3848 0002041 252.2710 107.7928 15.50661869  5183"}}, "geometry": {"type": "Point", "coordinates": [132.92759819641518, 35.316007777415614]}}, {"type": "Feature", "properties": {"norad_id": 66474, "name": "STARLINK-35620", "group": "last-30-days", "lat": 36.12421019677773, "lon": 134.99244048227908, "alt_km": 409.3672747102264, "timestamp": "2025-12-10T14:53:35.945891+00:00", "meta": {"OBJECT_NAME": "STARLINK-35620", "OBJECT_ID": "2025-262U", "EPOCH": "2025-12-10T06:54:26.519616", "MEAN_MOTION": 15.50650843, "ECCENTRICITY": 0.00011172, "INCLINATION": 43.0004, "RA_OF_ASC_NODE": 85.3825, "ARG_OF_PERICENTER": 264.2288, "MEAN_ANOMALY": 95.8444, "EPHEMERIS_TYPE": 0, "CLASSIFICATION_TYPE": "U", "NORAD_CAT_ID": 66474, "ELEMENT_SET_NO": 999, "REV_AT_EPOCH": 518, "BSTAR": 0.0032381356, "MEAN_MOTION_DOT": 0.00194929, "MEAN_MOTION_DDOT": 0}, "tle": {"line1": "1 66474U 25262U   25344.28780694  .00194929  00000+0  32381-2 0  9998", "line2": "2 66474  43.0004  85.3825 0001117 264.2288  95.8444 15.50650843  5188"}}, "geometry": {"type": "Point", "coordinates": [134.99244048227908, 36.12421019677773]}}]}